#cP2021  6 20  0  0  0.00000000      96 ORBIT IGb14 HLM  IGS
## 2163      0.00000000   900.00000000 59385 0.0000000000000
+   31   G01G02G03G04G05G06G07G08G09G10G12G13G14G15G16G17G18
+        G19G20G21G22G23G24G25G26G27G28G29G30G31G32  0  0  0
+          0  0  0  0  0  0  0  0  0  0  0  0  0  0  0  0  0
+          0  0  0  0  0  0  0  0  0  0  0  0  0  0  0  0  0
+          0  0  0  0  0  0  0  0  0  0  0  0  0  0  0  0  0
++         2  2  2  2  2  2  2  2  2  2  2  2  3  2  3  2  3
++         2  2  2  2  3  2  3  3  2  2  2  2  2  2  0  0  0
++         0  0  0  0  0  0  0  0  0  0  0  0  0  0  0  0  0
++         0  0  0  0  0  0  0  0  0  0  0  0  0  0  0  0  0
++         0  0  0  0  0  0  0  0  0  0  0  0  0  0  0  0  0
%c G  cc GPS ccc cccc cccc cccc cccc ccccc ccccc ccccc ccccc
%c cc cc ccc ccc cccc cccc cccc cccc ccccc ccccc ccccc ccccc
%f  1.2500000  1.025000000  0.00000000000  0.000000000000000
%f  0.0000000  0.000000000  0.00000000000  0.000000000000000
%i    0    0    0    0      0      0      0      0         0
%i    0    0    0    0      0      0      0      0         0
/* RAPID ORBIT COMBINATION FROM WEIGHTED AVERAGE OF:        
/* cod emr esa gfz jpl ngs sio usn whu                      
/* REFERENCED TO IGS TIME (IGST) AND TO WEIGHTED MEAN POLE: 
/* PCV:IGS14_2148 OL/AL:FES2004  NONE     Y  ORB:CMB CLK:CMB
*  2021  6 20 12 45  0.00000000
PG01  13918.496374 -22394.527455   -593.885748    652.698004  6  5  5  93       
PG02 -17619.380580   6128.517865 -18278.987934   -613.768696  8  5  3  68       
PG03  13608.123059 -12576.473683 -19072.409718   -197.284578  7  2     87       
PG04   4839.034157 -18872.463323 -18016.644609   -200.391579  6  8  7  88       
PG05 -24307.509446   6223.960061   8832.032305    -45.494343  6  6  3  86       
PG06 -13192.369024  -6553.829413 -22048.516086     29.316844  4  7  6  61       
PG07   3080.423727 -22641.579954  13466.221197    182.988201  6  4  6  96       
PG08  11790.159301  -9644.999346  21722.036821    -25.788055  6  4  1  90       
PG09  -5240.255893 -24089.509178  -9915.281874   -351.998254  6  5  5  99       
PG10  17570.510892  11803.764728  16325.624824   -146.078544  4  3  5  82       
PG12 -15506.486094  11095.675576 -18684.237386    -57.562389  6  5  5  73       
PG13 -15562.011222    426.430606  21404.321756    147.315494  5  3  2  86       
PG14 -16979.078801 -12694.126740  16017.498515     65.326502  8  9  3  91       
PG15 -11100.866183  11395.263502  20872.625620   -141.074049  3  5  3 109       
PG16  26432.949152    503.033770   4188.324436   -344.268537 13  4  6  91       
PG17 -13117.711632 -22694.641706  -3834.389192    461.437996  4  3  6 105       
PG18  -1320.025024  21445.951376  15553.493594    345.804479  7  4  3  89       
PG19 -16144.885765 -16954.094651 -12952.665972     15.857949  4     5 105       
PG20 -24911.525941   6754.661616   5454.191003    520.994469  6  5  5  84       
PG21  16813.117706 -18535.326826   8798.661674    126.258563  8  4  6  91       
PG22  21122.059298 -10237.863070 -12052.415783   -583.711788  6  5  3  63       
PG23   5677.663206  14814.575928  21287.383219     94.688169  7  6  5 115       
PG24 -15178.212551  20939.383930   4791.761680    140.918721  5  6  4  71       
PG25  -2359.797053  15219.746704 -21888.212119    159.286504  7  5  6  99       
PG26  25542.370891   4472.884513  -6430.566374    100.762177 12 10  5 101       
PG27  16820.051953   2328.942518  20339.436534   -150.183689  5  5     83       
PG28 -21153.538180 -11033.574097  12016.906554    551.492387  6  7  2  88       
PG29   2721.716858  24100.244799 -10812.980405   -367.206877  8  6  6  96       
PG30  -7701.797925 -15352.146296  20269.020629   -441.255107  1  4  4  79       
PG31  15440.828689   4032.451892 -21374.925655   -124.117616  7  2  6 112       
PG32  15998.419124  20319.670817  -6320.828528     17.778846  5  5  7 102       
*  2021  6 20 13  0  0.00000000
PG01  14035.809814 -22174.092272   2327.628523    652.687512  6  4  5 104       
PG02 -16728.769072   4013.343957 -19602.812513   -613.771378  8  5  4  64       
PG03  15684.808502 -12437.453061 -17486.034734   -197.294294  6  4     80       
PG04   5959.509584 -17035.180831 -19458.708300   -200.392544  6  8  7  70       
PG05 -25188.414462   6013.014360   6170.362348    -45.495972  7  5  4  69       
PG06 -11911.383126  -8732.100334 -22017.679478     29.321083  4  7  6  73       
PG07   4002.222399 -23692.604403  11106.723135    182.996661  7  4  6  58       
PG08  13085.890314  -7512.727766  21848.762439    -25.788438  5  4  1  98       
PG09  -4387.013039 -23121.670468 -12351.075134   -351.999829  6  4  5  68       
PG10  15632.542220  11926.119317  18098.844689   -146.085335  3  4  5  92       
PG12 -17488.581613  10816.354964 -16986.472551    -57.567238  7  5  5  86       
PG13 -16430.085069  -1845.622047  20684.767999    147.320237  5  4  2  61       
PG14 -15037.794338 -12765.820983  17797.367054     65.319604  7  9  4  79       
PG15 -12607.143561   9414.262090  21033.399965   -141.071684  3  6  3  91       
PG16  26754.062434    718.249041   1356.898824   -344.274047 13  5  6  94       
PG17 -13082.675800 -23069.587302   -954.100271    461.443244  5  3  6 102       
PG18  -2340.070827  22767.572139  13402.093614    345.802726  7  2  3  84       
PG19 -16524.925259 -18202.001707 -10504.333849     15.862230  5  2  6 109       
PG20 -25428.233178   6488.317801   2676.800966    520.993952  6  5  5  78       
PG21  16570.290674 -17454.495567  11351.869146    126.261447  8  4  6 108       
PG22  22421.286840 -10062.239812  -9631.062383   -583.703564  7  5  4  54       
PG23   3214.978273  14904.835361  21728.896668     94.684227  6  6  6 109       
PG24 -15163.220378  20119.410899   7496.766740    140.934421  5  6  4  81       
PG25  -4788.530557  15172.390316 -21492.846132    159.292690  7  6  6 108       
PG26  24679.657783   4775.920182  -9044.694130    100.766502 12  9  5 101       
PG27  17883.291344   4345.815375  19106.361071   -150.189164  5  4     88       
PG28 -19710.794283 -11068.816688  14337.453347    551.486542  5  7  1  81       
PG29   1985.306288  22936.089110 -13247.655643   -367.212328  8  5  5 107       
PG30  -6402.142505 -17203.905373  19180.652923   -441.259227     4  5  72       
PG31  14168.887042   6120.931436 -21716.849630   -124.119770  7  2  6 117       
PG32  16073.469186  20942.075327  -3557.357396     17.777488  4  5  7 100       
*  2021  6 20 13 15  0.00000000
PG01  14013.708564 -21663.825347   5208.073218    652.677012  6  4  4 113       
PG02 -15894.933740   1729.124200 -20570.440387   -613.773820  7  5  4  95       
PG03  17570.996658 -12398.572356 -15599.409044   -197.303885  6  5  1  81       
PG04   7248.329915 -15135.359730 -20565.160826   -200.393480  5  8  8  60       
PG05 -25773.061240   5821.338223   3403.198753    -45.496630  7  5  5  88       
PG06 -10764.674794 -10956.245877 -21605.953448     29.325356  5  7  7  47       
PG07   4746.592138 -24542.664269   8554.182368    183.005312  7  4  6  63       
PG08  14487.327080  -5460.491262  21599.232574    -25.790512  5  3  2  98       
PG09  -3338.599473 -21980.686193 -14574.742329   -352.001433  6  4  6  97       
PG10  13521.099921  12164.189696  19566.290960   -146.092260  3  5  6  96       
PG12 -19277.791691  10647.407198 -15000.051559    -57.571871  8  4  5 100       
PG13 -17372.475950  -3974.555625  19606.070249    147.324271  6  3  3  57       
PG14 -12918.465356 -12939.554245  19271.233184     65.312629  6  8  5  50       
PG15 -14198.529676   7509.668010  20820.051666   -141.069457  4  6  3  97       
PG16  26767.624275    902.521590  -1497.291365   -344.279540 12  5  6 110       
PG17 -12908.400986 -23159.007191   1942.695248    461.448385  7  4  6 105       
PG18  -3167.444287  23914.594627  11019.069957    345.800956  6  1  3 109       
PG19 -16842.776582 -19174.758922  -7878.734819     15.866938  6  3  6  97       
PG20 -25644.576802   6183.942891   -147.615144    520.993296  7  4  6  93       
PG21  16273.969851 -16114.178009  13710.865463    126.263520  9  3  6 100       
PG22  23445.172033  -9905.933850  -7040.826205   -583.694788  7  6  5  98       
PG23    731.187537  15127.101353  21795.888858     94.680323  6  6  6 102       
PG24 -15069.961226  19021.219975  10068.649214    140.949948  6  5  4  98       
PG25  -7155.057003  15249.337987 -20735.086773    159.298901  7  7  7 104       
PG26  23549.657682   5149.589526 -11505.837253    100.770773 11  9  6 112       
PG27  18966.389705   6165.207493  17543.308904   -150.194642  5  4     90       
PG28 -18030.069180 -11170.689013  16417.016054    551.480763  4  8  1  59       
PG29   1057.900231  21584.801089 -15454.375583   -367.218288  6  6  5 104       
PG30  -5258.923523 -18993.450383  17761.828130   -441.263483     5  5  69       
PG31  12996.028855   8291.919728 -21688.557183   -124.121549  7  3  6 113       
PG32  16007.269873  21296.257117   -733.178863     17.776111  3  5  7 118       
EOF
